{"type": "FeatureCollection", "features": [ {"type": "Feature", "properties": {"norad_id": 37550, "name": "IRIDIUM 33 DEB", "group": "iridium-33-debris", "lat": 24.13564331565968, "lon": -158.82739842440577, "alt_km": 666.9012522142875, "timestamp": "2025-12-15T04:01:20.837848+00:00", "meta": {"OBJECT_NAME": "IRIDIUM 33 DEB", "OBJECT_ID": "1997-051XK", "EPOCH": "2025-12-13T08:45:33.524640", "MEAN_MOTION": 14.67228096, "ECCENTRICITY": 0.00055701, "INCLINATION": 86.378, "RA_OF_ASC_NODE": 23.5976, "ARG_OF_PERICENTER": 109.645, "MEAN_ANOMALY": 250.5366, "EPHEMERIS_TYPE": 0, "CLASSIFICATION_TYPE": "U", "NORAD_CAT_ID": 37550, "ELEMENT_SET_NO": 999, "REV_AT_EPOCH": 86342, "BSTAR": 0.0021536322, "MEAN_MOTION_DOT": 0.00012161, "MEAN_MOTION_DDOT": 0}, "tle": {"line1": "1 37550U 97051XK  25347.36497135  .00012161  00000+0  21536-2 0  9990", "line2": "2 37550  86.3780  23.5976 0005570 109.6450 250.5366 14.67228096863423"}}, "geometry": {"type": "Point", "coordinates": [-158.82739842440577, 24.13564331565968]}}, {"type": "Feature", "properties": {"norad_id": 37562, "name": "IRIDIUM 33 DEB", "group": "iridium-33-debris", "lat": -86.33065601267539, "lon": -38.856632233011005, "alt_km": 730.5993563145394, "timestamp": "2025-12-15T04:01:20.837858+00:00", "meta": {"OBJECT_NAME": "IRIDIUM 33 DEB", "OBJECT_ID": "1997-051XX", "EPOCH": "2025-12-12T22:34:29.180064", "MEAN_MOTION": 14.56479735, "ECCENTRICITY": 0.00267072, "INCLINATION": 86.3742, "RA_OF_ASC_NODE": 43.5127, "ARG_OF_PERICENTER": 107.2211, "MEAN_ANOMALY": 13.868, "EPHEMERIS_TYPE": 0, "CLASSIFICATION_TYPE": "U", "NORAD_CAT_ID": 37562, "ELEMENT_SET_NO": 999, "REV_AT_EPOCH": 86331, "BSTAR": 0.0015437368, "MEAN_MOTION_DOT": 6.916e-05, "MEAN_MOTION_DDOT": 0}, "tle": {"line1": "1 37562U 97051XX  25346.94061551  .00006916  00000+0  15437-2 0  9999", "line2": "2 37562  86.3742  43.5127 0026707 107.2211  13.8680 14.56479735863311"}}, "geometry": {"type": "Point", "coordinates": [-38.856632233011005, -86.33065601267539]}}, {"type": "Feature", "properties": {"norad_id": 37565, "name": "IRIDIUM 33 DEB", "group": "iridium-33-debris", "lat": 7.552809341783029, "lon": 9.006029408009187, "alt_km": 718.7973451304833, "timestamp": "2025-12-15T04:01:20.837868+00:00", "meta": {"OBJECT_NAME": "IRIDIUM 33 DEB", "OBJECT_ID": "1997-051YA", "EPOCH": "2025-12-14T08:08:01.766976", "MEAN_MOTION": 14.51526199, "ECCENTRICITY": 0.0015168, "INCLINATION": 86.3501, "RA_OF_ASC_NODE": 8.8819, "ARG_OF_PERICENTER": 79.3399, "MEAN_ANOMALY": 280.9514, "EPHEMERIS_TYPE": 0, "CLASSIFICATION_TYPE": "U", "NORAD_CAT_ID": 37565, "ELEMENT_SET_NO": 999, "REV_AT_EPOCH": 65860, "BSTAR": 0.00061477591, "MEAN_MOTION_DOT": 2.481e-05, "MEAN_MOTION_DDOT": 0}, "tle": {"line1": "1 37565U 97051YA  25348.33890934  .00002481  00000+0  61478-3 0  9992", "line2": "2 37565  86.3501   8.8819 0015168  79.3399 280.9514 14.51526199658603"}}, "geometry": {"type": "Point", "coordinates": [9.006029408009187, 7.552809341783029]}}, {"type": "Feature", "properties": {"norad_id": 38017, "name": "IRIDIUM 33 DEB", "group": "iridium-33-debris", "lat": 73.49153427583182, "lon": 177.6357835318244, "alt_km": 660.4404874781221, "timestamp": "2025-12-15T04:01:20.837878+00:00", "meta": {"OBJECT_NAME": "IRIDIUM 33 DEB", "OBJECT_ID": "1997-051YD", "EPOCH": "2025-12-09T11:46:33.949344", "MEAN_MOTION": 14.48798991, "ECCENTRICITY": 0.0092342, "INCLINATION": 86.3421, "RA_OF_ASC_NODE": 167.6378, "ARG_OF_PERICENTER": 113.8595, "MEAN_ANOMALY": 247.2321, "EPHEMERIS_TYPE": 0, "CLASSIFICATION_TYPE": "U", "NORAD_CAT_ID": 38017, "ELEMENT_SET_NO": 999, "REV_AT_EPOCH": 61355, "BSTAR": 0.0067532519, "MEAN_MOTION_DOT": 0.00027013, "MEAN_MOTION_DDOT": 0}, "tle": {"line1": "1 38017U 97051YD  25343.49067071  .00027013  00000+0  67533-2 0  9990", "line2": "2 38017  86.3421 167.6378 0092342 113.8595 247.2321 14.48798991613556"}}, "geometry": {"type": "Point", "coordinates": [177.6357835318244, 73.49153427583182]}}, {"type": "Feature", "properties": {"norad_id": 38022, "name": "IRIDIUM 33 DEB", "group": "iridium-33-debris", "lat": 30.89008748312058, "lon": -166.85702768941923, "alt_km": 761.9974697606103, "timestamp": "2025-12-15T04:01:20.837888+00:00", "meta": {"OBJECT_NAME": "IRIDIUM 33 DEB", "OBJECT_ID": "1997-051YJ", "EPOCH": "2025-12-12T08:41:14.041248", "MEAN_MOTION": 14.41246239, "ECCENTRICITY": 0.00465932, "INCLINATION": 86.2691, "RA_OF_ASC_NODE": 16.6083, "ARG_OF_PERICENTER": 51.6762, "MEAN_ANOMALY": 308.8611, "EPHEMERIS_TYPE": 0, "CLASSIFICATION_TYPE": "U", "NORAD_CAT_ID": 38022, "ELEMENT_SET_NO": 999, "REV_AT_EPOCH": 69188, "BSTAR": 0.001535131, "MEAN_MOTION_DOT": 5.042e-05, "MEAN_MOTION_DDOT": 0}, "tle": {"line1": "1 38022U 97051YJ  25346.36196807  .00005042  00000+0  15351-2 0  9994", "line2": "2 38022  86.2691  16.6083 0046593  51.6762 308.8611 14.41246239691882"}}, "geometry": {"type": "Point", "coordinates": [-166.85702768941923, 30.89008748312058]}}, {"type": "Feature", "properties": {"norad_id": 38028, "name": "IRIDIUM 33 DEB", "group": "iridium-33-debris", "lat": -25.317566006077406, "lon": -2.519422677317917, "alt_km": 759.6739265294555, "timestamp": "2025-12-15T04:01:20.837899+00:00", "meta": {"OBJECT_NAME": "IRIDIUM 33 DEB", "OBJECT_ID": "1997-051YQ", "EPOCH": "2025-12-13T07:18:12.945600", "MEAN_MOTION": 14.4618008, "ECCENTRICITY": 0.00302038, "INCLINATION": 86.3305, "RA_OF_ASC_NODE": 0.0289, "ARG_OF_PERICENTER": 118.4875, "MEAN_ANOMALY": 241.9376, "EPHEMERIS_TYPE": 0, "CLASSIFICATION_TYPE": "U", "NORAD_CAT_ID": 38028, "ELEMENT_SET_NO": 999, "REV_AT_EPOCH": 65503, "BSTAR": 0.00033695006, "MEAN_MOTION_DOT": 1.231e-05, "MEAN_MOTION_DDOT": 0}, "tle": {"line1": "1 38028U 97051YQ  25347.30431650  .00001231  00000+0  33695-3 0  9991", "line2": "2 38028  86.3305   0.0289 0030203 118.4875 241.9376 14.46180080655032"}}, "geometry": {"type": "Point", "coordinates": [-2.519422677317917, -25.317566006077406]}}, {"type": "Feature", "properties": {"norad_id": 38228, "name": "IRIDIUM 33 DEB", "group": "iridium-33-debris", "lat": 76.23143493615052, "lon": -147.89546489628108, "alt_km": 784.1101669478621, "timestamp": "2025-12-15T04:01:20.837909+00:00", "meta": {"OBJECT_NAME": "IRIDIUM 33 DEB", "OBJECT_ID": "1997-051ZC", "EPOCH": "2025-12-13T11:13:27.811200", "MEAN_MOTION": 14.27268948, "ECCENTRICITY": 0.00643391, "INCLINATION": 86.2949, "RA_OF_ASC_NODE": 48.1604, "ARG_OF_PERICENTER": 187.0426, "MEAN_ANOMALY": 187.919, "EPHEMERIS_TYPE": 0, "CLASSIFICATION_TYPE": "U", "NORAD_CAT_ID": 38228, "ELEMENT_SET_NO": 999, "REV_AT_EPOCH": 84792, "BSTAR": 0.00045930818, "MEAN_MOTION_DOT": 1.167e-05, "MEAN_MOTION_DDOT": 0}, "tle": {"line1": "1 38228U 97051ZC  25347.46768300  .00001167  00000+0  45931-3 0  9999", "line2": "2 38228  86.2949  48.1604 0064339 187.0426 187.9190 14.27268948847925"}}, "geometry": {"type": "Point", "coordinates": [-147.89546489628108, 76.23143493615052]}}, {"type": "Feature", "properties": {"norad_id": 38241, "name": "IRIDIUM 33 DEB", "group": "iridium-33-debris", "lat": -84.93878314684612, "lon": -143.91520968301654, "alt_km": 720.9003089510888, "timestamp": "2025-12-15T04:01:20.837918+00:00", "meta": {"OBJECT_NAME": "IRIDIUM 33 DEB", "OBJECT_ID": "1997-051ZR", "EPOCH": "2025-12-13T06:13:58.226016", "MEAN_MOTION": 14.54873749, "ECCENTRICITY": 0.00056326, "INCLINATION": 86.3232, "RA_OF_ASC_NODE": 350.3699, "ARG_OF_PERICENTER": 72.2147, "MEAN_ANOMALY": 287.9674, "EPHEMERIS_TYPE": 0, "CLASSIFICATION_TYPE": "U", "NORAD_CAT_ID": 38241, "ELEMENT_SET_NO": 999, "REV_AT_EPOCH": 60208, "BSTAR": 0.0012492013, "MEAN_MOTION_DOT": 5.385e-05, "MEAN_MOTION_DDOT": 0}, "tle": {"line1": "1 38241U 97051ZR  25347.25970169  .00005385  00000+0  12492-2 0  9990", "line2": "2 38241  86.3232 350.3699 0005632  72.2147 287.9674 14.54873749602089"}}, "geometry": {"type": "Point", "coordinates": [-143.91520968301654, -84.93878314684612]}}, {"type": "Feature", "properties": {"norad_id": 38474, "name": "IRIDIUM 33 DEB", "group": "iridium-33-debris", "lat": 2.8743598786759215, "lon": 9.191856451130759, "alt_km": 721.4968389235155, "timestamp": "2025-12-15T04:01:20.837929+00:00", "meta": {"OBJECT_NAME": "IRIDIUM 33 DEB", "OBJECT_ID": "1997-051AAB", "EPOCH": "2025-12-13T08:58:04.646496", "MEAN_MOTION": 14.5069505, "ECCENTRICITY": 0.00282612, "INCLINATION": 86.3454, "RA_OF_ASC_NODE": 9.789, "ARG_OF_PERICENTER": 86.1077, "MEAN_ANOMALY": 274.3358, "EPHEMERIS_TYPE": 0, "CLASSIFICATION_TYPE": "U", "NORAD_CAT_ID": 38474, "ELEMENT_SET_NO": 999, "REV_AT_EPOCH": 65327, "BSTAR": 0.00084561127, "MEAN_MOTION_DOT": 3.359e-05, "MEAN_MOTION_DDOT": 0}, "tle": {"line1": "1 38474U 97051AAB 25347.37366489  .00003359  00000+0  84561-3 0  9991", "line2": "2 38474  86.3454   9.7890 0028261  86.1077 274.3358 14.50695050653279"}}, "geometry": {"type": "Point", "coordinates": [9.191856451130759, 2.8743598786759215]}}, {"type": "Feature", "properties": {"norad_id": 39777, "name": "IRIDIUM 33 DEB", "group": "iridium-33-debris", "lat": 79.57589107537666, "lon": -28.709096583144404, "alt_km": 688.6568817840616, "timestamp": "2025-12-15T04:01:20.837939+00:00", "meta": {"OBJECT_NAME": "IRIDIUM 33 DEB", "OBJECT_ID": "1997-051AAJ", "EPOCH": "2025-12-12T06:18:37.183104", "MEAN_MOTION": 14.5641282, "ECCENTRICITY": 0.00598335, "INCLINATION": 85.9631, "RA_OF_ASC_NODE": 175.2743, "ARG_OF_PERICENTER": 188.1374, "MEAN_ANOMALY": 171.887, "EPHEMERIS_TYPE": 0, "CLASSIFICATION_TYPE": "U", "NORAD_CAT_ID": 39777, "ELEMENT_SET_NO": 999, "REV_AT_EPOCH": 60178, "BSTAR": 0.0041697031, "MEAN_MOTION_DOT": 0.00019016, "MEAN_MOTION_DDOT": 0}, "tle": {"line1": "1 39777U 97051AAJ 25346.26293036  .00019016  00000+0  41697-2 0  9991", "line2": "2 39777  85.9631 175.2743 0059833 188.1374 171.8870 14.56412820601783"}}, "geometry": {"type": "Point", "coordinates": [-28.709096583144404, 79.57589107537666]}}]}